[{"OBJECT_NAME":"ALICE","OBJECT_ID":"2013-072F","EPOCH":"2026-03-09T16:03:25.924320","MEAN_MOTION":15.07155655,"ECCENTRICITY":0.01592016,"INCLINATION":120.4625,"RA_OF_ASC_NODE":282.3278,"ARG_OF_PERICENTER":246.5562,"MEAN_ANOMALY":111.8695,"EPHEMERIS_TYPE":0,"CLASSIFICATION_TYPE":"U","NORAD_CAT_ID":39467,"ELEMENT_SET_NO":999,"REV_AT_EPOCH":10026,"BSTAR":0.00062398338,"MEAN_MOTION_DOT":0.00012311,"MEAN_MOTION_DDOT":0},{"OBJECT_NAME":"CZ-4B DEB","OBJECT_ID":"1999-057RY","EPOCH":"2026-03-09T06:39:48.461472","MEAN_MOTION":14.82492709,"ECCENTRICITY":0.00016402,"INCLINATION":98.2838,"RA_OF_ASC_NODE":89.9712,"ARG_OF_PERICENTER":101.2337,"MEAN_ANOMALY":258.9059,"EPHEMERIS_TYPE":0,"CLASSIFICATION_TYPE":"U","NORAD_CAT_ID":35320,"ELEMENT_SET_NO":999,"REV_AT_EPOCH":3073,"BSTAR":0.00064876081,"MEAN_MOTION_DOT":5.154e-5,"MEAN_MOTION_DDOT":0}]
